[{"OBJECT_NAME":"LKW-3","OBJECT_ID":"2018-006A","EPOCH":"2026-03-09T23:35:48.740928","MEAN_MOTION":15.33087407,"ECCENTRICITY":0.00022503,"INCLINATION":97.6481,"RA_OF_ASC_NODE":225.9034,"ARG_OF_PERICENTER":308.148,"MEAN_ANOMALY":51.9559,"EPHEMERIS_TYPE":0,"CLASSIFICATION_TYPE":"U","NORAD_CAT_ID":43146,"ELEMENT_SET_NO":999,"REV_AT_EPOCH":45350,"BSTAR":0.00042518021,"MEAN_MOTION_DOT":0.00013518,"MEAN_MOTION_DDOT":0},{"OBJECT_NAME":"STARLINK-33581","OBJECT_ID":"2025-015AC","EPOCH":"2026-03-09T23:42:05.077728","MEAN_MOTION":15.3020351,"ECCENTRICITY":0.00011701,"INCLINATION":53.1576,"RA_OF_ASC_NODE":321.2896,"ARG_OF_PERICENTER":82.9517,"MEAN_ANOMALY":277.1616,"EPHEMERIS_TYPE":0,"CLASSIFICATION_TYPE":"U","NORAD_CAT_ID":62784,"ELEMENT_SET_NO":999,"REV_AT_EPOCH":6452,"BSTAR":0.00061300222,"MEAN_MOTION_DOT":0.00017842,"MEAN_MOTION_DDOT":0}]
